{
    "links": {
        "self": "http://www.neowsapp.com/rest/v1/neo/3879170?api_key=iIulBulltgU6a56xZRHN4H3l9WmuAYTsLGpBGhQ2"
    },
    "id": "3879170",
    "neo_reference_id": "3879170",
    "name": "(2019 TG7)",
    "designation": "2019 TG7",
    "nasa_jpl_url": "http://ssd.jpl.nasa.gov/sbdb.cgi?sstr=3879170",
    "absolute_magnitude_h": 26.0,
    "estimated_diameter": {
        "kilometers": {
            "estimated_diameter_min": 0.0167708462,
            "estimated_diameter_max": 0.0375007522
        },
        "meters": {
            "estimated_diameter_min": 16.7708462163,
            "estimated_diameter_max": 37.5007521798
        },
        "miles": {
            "estimated_diameter_min": 0.0104209175,
            "estimated_diameter_max": 0.0233018799
        },
        "feet": {
            "estimated_diameter_min": 55.0224631002,
            "estimated_diameter_max": 123.0339677816
        }
    },
    "is_potentially_hazardous_asteroid": false,
    "close_approach_data": [
        {
            "close_approach_date": "2019-10-19",
            "close_approach_date_full": "2019-Oct-19 10:40",
            "epoch_date_close_approach": 1571481600000,
            "relative_velocity": {
                "kilometers_per_second": "7.5671877691",
                "kilometers_per_hour": "27241.8759689036",
                "miles_per_hour": "16927.042320789"
            },
            "miss_distance": {
                "astronomical": "0.0430355717",
                "lunar": "16.7408373913",
                "kilometers": "6438029.860552279",
                "miles": "4000406.2540442902"
            },
            "orbiting_body": "Earth"
        }
    ],
    "orbital_data": {
        "orbit_id": "1",
        "orbit_determination_date": "2019-10-11 09:12:02",
        "first_observation_date": "2019-10-10",
        "last_observation_date": "2019-10-11",
        "data_arc_in_days": 1,
        "observations_used": 15,
        "orbit_uncertainty": "9",
        "minimum_orbit_intersection": ".0234931",
        "jupiter_tisserand_invariant": "3.620",
        "epoch_osculation": "2458766.5",
        "eccentricity": ".50415316975223",
        "semi_major_axis": "2.047378092074811",
        "inclination": "5.682927579851182",
        "ascending_node_longitude": "215.6292974279753",
        "orbital_period": "1070.028892752801",
        "perihelion_distance": "1.015185937274022",
        "perihelion_argument": "185.7902587197121",
        "aphelion_distance": "3.0795702468756",
        "perihelion_time": "2458788.261450760834",
        "mean_anomaly": "352.6785880951814",
        "mean_motion": ".3364395133984176",
        "equinox": "J2000",
        "orbit_class": {
            "orbit_class_type": "APO",
            "orbit_class_description": "Near-Earth asteroid orbits which cross the Earth’s orbit similar to that of 1862 Apollo",
            "orbit_class_range": "a (semi-major axis) > 1.0 AU; q (perihelion) < 1.017 AU"
        }
    },
    "is_sentry_object": false
}